CCSDS_OMM_VERS = 2.0
CREATION_DATE  = 
ORIGINATOR     = 

OBJECT_NAME    = SL-16 R/B
OBJECT_ID      = 1993-016B
CENTER_NAME    = EARTH
REF_FRAME      = TEME
TIME_SYSTEM    = UTC
MEAN_ELEMENT_THEORY = SGP/SGP4

EPOCH          = 2025-12-14T07:56:16.932192
MEAN_MOTION    = 14.15286908
ECCENTRICITY   = .0007921
INCLINATION    = 71.0080
RA_OF_ASC_NODE = 34.4624
ARG_OF_PERICENTER = 94.5444
MEAN_ANOMALY   = 265.6584

EPHEMERIS_TYPE = 0
CLASSIFICATION_TYPE = U
NORAD_CAT_ID   = 22566
ELEMENT_SET_NO = 999
REV_AT_EPOCH   = 69009
BSTAR          = .28397659E-4
MEAN_MOTION_DOT = .8E-7
MEAN_MOTION_DDOT = 0

CCSDS_OMM_VERS = 2.0
CREATION_DATE  = 
ORIGINATOR     = 

OBJECT_NAME    = COSMOS 2242
OBJECT_ID      = 1993-024A
CENTER_NAME    = EARTH
REF_FRAME      = TEME
TIME_SYSTEM    = UTC
MEAN_ELEMENT_THEORY = SGP/SGP4

EPOCH          = 2025-12-14T02:34:18.360480
MEAN_MOTION    = 14.96114253
ECCENTRICITY   = .00150066
INCLINATION    = 82.5192
RA_OF_ASC_NODE = 348.5381
ARG_OF_PERICENTER = 229.2446
MEAN_ANOMALY   = 130.7474

EPHEMERIS_TYPE = 0
CLASSIFICATION_TYPE = U
NORAD_CAT_ID   = 22626
ELEMENT_SET_NO = 999
REV_AT_EPOCH   = 76759
BSTAR          = .23122698E-3
MEAN_MOTION_DOT = .2631E-4
MEAN_MOTION_DDOT = 0

CCSDS_OMM_VERS = 2.0
CREATION_DATE  = 
ORIGINATOR     = 

OBJECT_NAME    = SL-16 R/B
OBJECT_ID      = 1993-059B
CENTER_NAME    = EARTH
REF_FRAME      = TEME
TIME_SYSTEM    = UTC
MEAN_ELEMENT_THEORY = SGP/SGP4

EPOCH          = 2025-12-14T00:03:44.619264
MEAN_MOTION    = 14.17213519
ECCENTRICITY   = .00180767
INCLINATION    = 70.9888
RA_OF_ASC_NODE = 191.8235
ARG_OF_PERICENTER = 333.7421
MEAN_ANOMALY   = 26.2785

EPHEMERIS_TYPE = 0
CLASSIFICATION_TYPE = U
NORAD_CAT_ID   = 22803
ELEMENT_SET_NO = 999
REV_AT_EPOCH   = 66739
BSTAR          = -.49828428E-4
MEAN_MOTION_DOT = -.149E-5
MEAN_MOTION_DDOT = 0

CCSDS_OMM_VERS = 2.0
CREATION_DATE  = 
ORIGINATOR     = 

OBJECT_NAME    = ARIANE 40 R/B
OBJECT_ID      = 1993-061H
CENTER_NAME    = EARTH
REF_FRAME      = TEME
TIME_SYSTEM    = UTC
MEAN_ELEMENT_THEORY = SGP/SGP4

EPOCH          = 2025-12-14T03:42:37.613664
MEAN_MOTION    = 14.32802439
ECCENTRICITY   = .00109544
INCLINATION    = 98.5075
RA_OF_ASC_NODE = 53.6587
ARG_OF_PERICENTER = 171.9316
MEAN_ANOMALY   = 188.2046

EPHEMERIS_TYPE = 0
CLASSIFICATION_TYPE = U
NORAD_CAT_ID   = 22830
ELEMENT_SET_NO = 999
REV_AT_EPOCH   = 68185
BSTAR          = .14599905E-3
MEAN_MOTION_DOT = .355E-5
MEAN_MOTION_DDOT = 0

CCSDS_OMM_VERS = 2.0
CREATION_DATE  = 
ORIGINATOR     = 

OBJECT_NAME    = COSMOS 2278
OBJECT_ID      = 1994-023A
CENTER_NAME    = EARTH
REF_FRAME      = TEME
TIME_SYSTEM    = UTC
MEAN_ELEMENT_THEORY = SGP/SGP4

EPOCH          = 2025-12-14T07:17:47.843808
MEAN_MOTION    = 14.14350127
ECCENTRICITY   = .00082462
INCLINATION    = 71.0540
RA_OF_ASC_NODE = 353.7384
ARG_OF_PERICENTER = 177.1957
MEAN_ANOMALY   = 182.9213

EPHEMERIS_TYPE = 0
CLASSIFICATION_TYPE = U
NORAD_CAT_ID   = 23087
ELEMENT_SET_NO = 999
REV_AT_EPOCH   = 63273
BSTAR          = -.64987141E-4
MEAN_MOTION_DOT = -.172E-5
MEAN_MOTION_DDOT = 0

CCSDS_OMM_VERS = 2.0
CREATION_DATE  = 
ORIGINATOR     = 

OBJECT_NAME    = SL-16 R/B
OBJECT_ID      = 1994-023B
CENTER_NAME    = EARTH
REF_FRAME      = TEME
TIME_SYSTEM    = UTC
MEAN_ELEMENT_THEORY = SGP/SGP4

EPOCH          = 2025-12-14T04:15:23.494464
MEAN_MOTION    = 14.15003057
ECCENTRICITY   = .00014474
INCLINATION    = 71.0004
RA_OF_ASC_NODE = 250.4668
ARG_OF_PERICENTER = 21.8001
MEAN_ANOMALY   = 338.3183

EPHEMERIS_TYPE = 0
CLASSIFICATION_TYPE = U
NORAD_CAT_ID   = 23088
ELEMENT_SET_NO = 999
REV_AT_EPOCH   = 63399
BSTAR          = .2186047E-5
MEAN_MOTION_DOT = -.43E-6
MEAN_MOTION_DDOT = 0

CCSDS_OMM_VERS = 2.0
CREATION_DATE  = 
ORIGINATOR     = 

OBJECT_NAME    = SL-16 R/B
OBJECT_ID      = 1994-074B
CENTER_NAME    = EARTH
REF_FRAME      = TEME
TIME_SYSTEM    = UTC
MEAN_ELEMENT_THEORY = SGP/SGP4

EPOCH          = 2025-12-14T08:33:13.292640
MEAN_MOTION    = 14.79291857
ECCENTRICITY   = .00076405
INCLINATION    = 97.7202
RA_OF_ASC_NODE = 17.5967
ARG_OF_PERICENTER = 131.2934
MEAN_ANOMALY   = 239.3797

EPHEMERIS_TYPE = 0
CLASSIFICATION_TYPE = U
NORAD_CAT_ID   = 23343
ELEMENT_SET_NO = 999
REV_AT_EPOCH   = 67463
BSTAR          = .97359152E-4
MEAN_MOTION_DOT = .675E-5
MEAN_MOTION_DDOT = 0

CCSDS_OMM_VERS = 2.0
CREATION_DATE  = 
ORIGINATOR     = 

OBJECT_NAME    = SL-16 R/B
OBJECT_ID      = 1994-077B
CENTER_NAME    = EARTH
REF_FRAME      = TEME
TIME_SYSTEM    = UTC
MEAN_ELEMENT_THEORY = SGP/SGP4

EPOCH          = 2025-12-14T06:18:42.202944
MEAN_MOTION    = 14.15550779
ECCENTRICITY   = .00046957
INCLINATION    = 70.9811
RA_OF_ASC_NODE = 172.2089
ARG_OF_PERICENTER = 283.0695
MEAN_ANOMALY   = 76.9904

EPHEMERIS_TYPE = 0
CLASSIFICATION_TYPE = U
NORAD_CAT_ID   = 23405
ELEMENT_SET_NO = 999
REV_AT_EPOCH   = 60414
BSTAR          = .1739314E-3
MEAN_MOTION_DOT = .292E-5
MEAN_MOTION_DDOT = 0

CCSDS_OMM_VERS = 2.0
CREATION_DATE  = 
ORIGINATOR     = 

OBJECT_NAME    = ARIANE 40+ R/B
OBJECT_ID      = 1995-021B
CENTER_NAME    = EARTH
REF_FRAME      = TEME
TIME_SYSTEM    = UTC
MEAN_ELEMENT_THEORY = SGP/SGP4

EPOCH          = 2025-12-14T04:31:55.243776
MEAN_MOTION    = 14.39696780
ECCENTRICITY   = .00074263
INCLINATION    = 98.4650
RA_OF_ASC_NODE = 55.7602
ARG_OF_PERICENTER = 46.1534
MEAN_ANOMALY   = 337.5131

EPHEMERIS_TYPE = 0
CLASSIFICATION_TYPE = U
NORAD_CAT_ID   = 23561
ELEMENT_SET_NO = 999
REV_AT_EPOCH   = 60694
BSTAR          = .14946698E-3
MEAN_MOTION_DOT = .424E-5
MEAN_MOTION_DDOT = 0

CCSDS_OMM_VERS = 2.0
CREATION_DATE  = 
ORIGINATOR     = 

OBJECT_NAME    = SL-16 R/B
OBJECT_ID      = 1995-058B
CENTER_NAME    = EARTH
REF_FRAME      = TEME
TIME_SYSTEM    = UTC
MEAN_ELEMENT_THEORY = SGP/SGP4

EPOCH          = 2025-12-14T08:04:26.085792
MEAN_MOTION    = 14.15484132
ECCENTRICITY   = .00149852
INCLINATION    = 71.0226
RA_OF_ASC_NODE = 359.4522
ARG_OF_PERICENTER = 253.4581
MEAN_ANOMALY   = 106.4896

EPHEMERIS_TYPE = 0
CLASSIFICATION_TYPE = U
NORAD_CAT_ID   = 23705
ELEMENT_SET_NO = 999
REV_AT_EPOCH   = 55577
BSTAR          = .7306655E-5
MEAN_MOTION_DOT = -.33E-6
MEAN_MOTION_DDOT = 0

CCSDS_OMM_VERS = 2.0
CREATION_DATE  = 
ORIGINATOR     = 

OBJECT_NAME    = SL-16 R/B
OBJECT_ID      = 1996-051B
CENTER_NAME    = EARTH
REF_FRAME      = TEME
TIME_SYSTEM    = UTC
MEAN_ELEMENT_THEORY = SGP/SGP4

EPOCH          = 2025-12-14T07:55:11.568864
MEAN_MOTION    = 14.12397021
ECCENTRICITY   = .00194299
INCLINATION    = 70.7596
RA_OF_ASC_NODE = 355.9179
ARG_OF_PERICENTER = 259.3735
MEAN_ANOMALY   = 100.5197

EPHEMERIS_TYPE = 0
CLASSIFICATION_TYPE = U
NORAD_CAT_ID   = 24298
ELEMENT_SET_NO = 999
REV_AT_EPOCH   = 50959
BSTAR          = .4813544E-4
MEAN_MOTION_DOT = .4E-6
MEAN_MOTION_DDOT = 0

CCSDS_OMM_VERS = 2.0
CREATION_DATE  = 
ORIGINATOR     = 

OBJECT_NAME    = ORBVIEW 2 (SEASTAR)
OBJECT_ID      = 1997-037A
CENTER_NAME    = EARTH
REF_FRAME      = TEME
TIME_SYSTEM    = UTC
MEAN_ELEMENT_THEORY = SGP/SGP4

EPOCH          = 2025-12-14T07:25:33.886272
MEAN_MOTION    = 14.35418687
ECCENTRICITY   = .00015915
INCLINATION    = 98.8457
RA_OF_ASC_NODE = 145.4234
ARG_OF_PERICENTER = 335.8573
MEAN_ANOMALY   = 24.2536

EPHEMERIS_TYPE = 0
CLASSIFICATION_TYPE = U
NORAD_CAT_ID   = 24883
ELEMENT_SET_NO = 999
REV_AT_EPOCH   = 49622
BSTAR          = .16812865E-3
MEAN_MOTION_DOT = .436E-5
MEAN_MOTION_DDOT = 0

