SL-16 R/B               
1 22566U 93016B   25348.33075153  .00000008  00000+0  28398-4 0  9990
2 22566  71.0080  34.4624 0007921  94.5444 265.6584 14.15286908690095
COSMOS 2242             
1 22626U 93024A   25348.10715695  .00002631  00000+0  23123-3 0  9997
2 22626  82.5192 348.5381 0015006 229.2446 130.7474 14.96114253767596
SL-16 R/B               
1 22803U 93059B   25348.00259976 -.00000149  00000+0 -49828-4 0  9991
2 22803  70.9888 191.8235 0018076 333.7421  26.2785 14.17213519667396
ARIANE 40 R/B           
1 22830U 93061H   25348.15460201  .00000355  00000+0  14600-3 0  9991
2 22830  98.5075  53.6587 0010954 171.9316 188.2046 14.32802439681855
COSMOS 2278             
1 23087U 94023A   25348.30402597 -.00000172  00000+0 -64987-4 0  9999
2 23087  71.0540 353.7384 0008246 177.1957 182.9213 14.14350127632734
SL-16 R/B               
1 23088U 94023B   25348.17735526 -.00000043  00000+0  21860-5 0  9996
2 23088  71.0004 250.4668 0001447  21.8001 338.3183 14.15003057633999
SL-16 R/B               
1 23343U 94074B   25348.35640385  .00000675  00000+0  97359-4 0  9999
2 23343  97.7202  17.5967 0007640 131.2934 239.3797 14.79291857674638
SL-16 R/B               
1 23405U 94077B   25348.26298846  .00000292  00000+0  17393-3 0  9996
2 23405  70.9811 172.2089 0004695 283.0695  76.9904 14.15550779604142
ARIANE 40+ R/B          
1 23561U 95021B   25348.18883384  .00000424  00000+0  14947-3 0  9996
2 23561  98.4650  55.7602 0007426  46.1534 337.5131 14.39696780606949
SL-16 R/B               
1 23705U 95058B   25348.33641303 -.00000033  00000+0  73067-5 0  9993
2 23705  71.0226 359.4522 0014985 253.4581 106.4896 14.15484132555778
SL-16 R/B               
1 24298U 96051B   25348.32999501  .00000040  00000+0  48135-4 0  9994
2 24298  70.7596 355.9179 0019429 259.3735 100.5197 14.12397021509590
ORBVIEW 2 (SEASTAR)     
1 24883U 97037A   25348.30941998  .00000436  00000+0  16813-3 0  9990
2 24883  98.8457 145.4234 0001591 335.8573  24.2536 14.35418687496223
